{
  "type": "FeatureCollection",
  "features": [
    {
      "type": "Feature",
      "properties": {
        "name": "Kyrgyzstan",
        "iso_a3": "KGZ"
      },
      "geometry": {
        "type": "Polygon",
        "coordinates": [
          [
            [
              74.98000247589542,
              42.02267032933628
            ],
            [
              75.45804358596772,
              42.563758856774444
            ],
            [
              75.25969098332688,
              42.87789988867668
            ],
            [
              74.8049923674136,
              43.22501604151707
            ],
            [
              74.34023433251554,
              43.06036259876305
            ],
            [
              73.97000247589541,
              42.986907472556596
            ],
            [
              73.58195943582311,
              42.24522439706186
            ],
            [
              73.64530358266092,
              41.73693155744923
            ],
            [
              73.48975752181713,
              41.500272760905704
            ],
            [
              73.6275475124978,
              41.446189455034116
            ],
            [
              73.80426310035585,
              41.29994036627026
            ],
            [
              74.01000047589542,
              41.13285716184958
            ],
            [
              74.25000047589542,
              41.00000016184958
            ],
            [
              74.98609801200063,
              40.36642761006589
            ],
            [
              75.81000047589542,
              40.25000016184958
            ],
            [
              76.20000047589542,
              40.36642761006589
            ],
            [
              77.08000047589542,
              40.95000016184958
            ],
            [
              78.10000047589542,
              41.00000016184958
            ],
            [
              78.55000047589542,
              41.00000016184958
            ],
            [
              79.00000047589542,
              40.95000016184958
            ],
            [
              79.40000047589542,
              42.00000016184958
            ],
            [
              80.11943037305145,
              42.12394036627026
            ],
            [
              80.25999047589543,
              42.34999916184958
            ],
            [
              80.18015047589543,
              42.92000016184958
            ],
            [
              80.11845679334069,
              43.08000016184958
            ],
            [
              79.9661063981861,
              43.12394036627026
            ],
            [
              79.78000047589542,
              43.18036259876305
            ],
            [
              79.5219346052304,
              43.24394036627026
            ],
            [
              79.27895624082919,
              43.40126749882253
            ],
            [
              79.00000047589542,
              43.50000016184958
            ],
            [
              78.50738129246298,
              43.50000016184958
            ],
            [
              78.06014408709738,
              43.42300016184958
            ],
            [
              77.79999047589542,
              43.18036259876305
            ],
            [
              77.47739328058094,
              43.17000016184958
            ],
            [
              76.93969668189586,
              43.19267032933628
            ],
            [
              76.3385663926411,
              42.85291973773669
            ],
            [
              75.63696447879633,
              42.87789988867668
            ],
            [
              75.25868226344172,
              42.93371616184958
            ],
            [
              74.98000247589542,
              42.02267032933628
            ]
          ],
          [
            [
              74.31590047589542,
              42.80000016184958
            ],
            [
              74.35000047589542,
              42.90000016184958
            ],
            [
              74.42000047589542,
              42.85000016184958
            ],
            [
              74.31590047589542,
              42.80000016184958
            ]
          ],
          [
            [
              79.06250047589542,
              42.99610016184958
            ],
            [
              79.11100047589542,
              42.98200016184958
            ],
            [
              79.08850047589542,
              42.95940016184958
            ],
            [
              79.06250047589542,
              42.99610016184958
            ]
          ],
          [
            [
              77.53000047589542,
              42.67000016184958
            ],
            [
              77.65000047589542,
              42.75000016184958
            ],
            [
              77.70000047589542,
              42.60000016184958
            ],
            [
              77.53000047589542,
              42.67000016184958
            ]
          ]
        ]
      }
    }
  ]
}

